NORAD_CAT_ID,OBJECT_NAME,OBJECT_TYPE,EPOCH,MEAN_MOTION,ECCENTRICITY,INCLINATION,RA_OF_ASC_NODE,ARG_OF_PERICENTER,MEAN_ANOMALY,BSTAR,MEAN_MOTION_DOT,MEAN_MOTION_DDOT,TLE_LINE0,TLE_LINE1,TLE_LINE2,SEMIMAJOR_AXIS,PERIOD,APOGEE,PERIGEE,DECAYED
54793.0,STARLINK-5433,PAYLOAD,2024-03-29 22:48:41,15.08841783,0.0001372,53.2175,325.2769,93.1206,266.9943,-1.739e-05,-5.65e-06,0.0,0 STARLINK-5433,1 54793U 22175AM  24089.95048522 -.00000565  00000-0 -17390-4 0  9995,2 54793  53.2175 325.2769 0001372  93.1206 266.9943 15.08841783 73128,6917.875,95.437,540.689,538.791,0.0
54793.0,STARLINK-5433,PAYLOAD,2024-03-30 08:21:00,15.08840681,0.000124,53.2171,323.4926,86.0901,274.0233,-9.5254e-05,-1.804e-05,0.0,0 STARLINK-5433,1 54793U 22175AM  24090.34792191 -.00001804  00000-0 -95254-4 0  9990,2 54793  53.2171 323.4926 0001240  86.0901 274.0233 15.08840681 73180,6917.878,95.438,540.601,538.885,0.0
54793.0,STARLINK-5433,PAYLOAD,2024-03-30 22:39:29,15.08839984,0.000121,53.2183,320.8172,100.6532,259.4597,5.1749e-05,5.36e-06,0.0,0 STARLINK-5433,1 54793U 22175AM  24090.94408897  .00000536  00000-0  51749-4 0  9993,2 54793  53.2183 320.8172 0001210 100.6532 259.4597 15.08839984 73271,6917.88,95.438,540.583,538.908,0.0
54793.0,STARLINK-5433,PAYLOAD,2024-03-31 00:14:52,15.08844484,0.0001267,53.2183,320.5178,94.925,265.1887,8.6982e-05,1.097e-05,0.0,0 STARLINK-5433,1 54793U 22175AM  24091.01032596  .00001097  00000-0  86982-4 0  9991,2 54793  53.2183 320.5178 0001267  94.9250 265.1887 15.08844484 71127,6917.867,95.437,540.608,538.855,0.0
54793.0,STARLINK-5433,PAYLOAD,2024-03-31 08:11:46,15.0886559,9.91e-05,53.2187,319.0305,93.1104,267.0002,0.00019264,2.781e-05,0.0,0 STARLINK-5433,1 54793U 22175AM  24091.34150606  .00002781  00000-0  19264-3 0  9999,2 54793  53.2187 319.0305 0000991  93.1104 267.0002 15.08865590 71174,6917.802,95.436,540.353,538.982,0.0
54793.0,STARLINK-5433,PAYLOAD,2024-03-31 14:33:18,15.08862481,0.0001347,53.2187,317.8403,82.4202,277.6943,0.00027102,4.031e-05,0.0,0 STARLINK-5433,1 54793U 22175AM  24091.60646448  .00004031  00000-0  27102-3 0  9992,2 54793  53.2187 317.8403 0001347  82.4202 277.6943 15.08862481 73376,6917.812,95.436,540.609,538.745,0.0
54793.0,STARLINK-5433,PAYLOAD,2024-03-31 19:19:29,15.08837621,0.0001047,53.218,316.9517,43.1087,316.9987,9.6417e-05,1.247e-05,0.0,0 STARLINK-5433,1 54793U 22175AM  24091.80520368  .00001247  00000-0  96417-4 0  9998,2 54793  53.2180 316.9517 0001047  43.1087 316.9987 15.08837621 71244,6917.888,95.438,540.477,539.028,0.0
54793.0,STARLINK-5433,PAYLOAD,2024-03-31 20:54:53,15.08830316,0.0001197,53.2172,316.6528,78.1711,281.9416,2.9979e-05,1.89e-06,0.0,0 STARLINK-5433,1 54793U 22175AM  24091.87144912  .00000189  00000-0  29979-4 0  9995,2 54793  53.2172 316.6528 0001197  78.1711 281.9416 15.08830316 73415,6917.91,95.438,540.603,538.947,0.0
54793.0,STARLINK-5433,PAYLOAD,2024-04-01 00:05:40,15.08821434,0.00014,53.218,316.0597,84.934,275.1811,-4.2396e-05,-9.62e-06,0.0,0 STARLINK-5433,1 54793U 22175AM  24092.00393811 -.00000962  00000-0 -42396-4 0  9994,2 54793  53.2180 316.0597 0001400  84.9340 275.1811 15.08821434 71271,6917.937,95.439,540.771,538.834,0.0
54793.0,STARLINK-5433,PAYLOAD,2024-04-01 08:02:35,15.08826729,0.0001314,53.2177,314.5725,90.1962,269.9181,-5.0881e-06,-3.69e-06,0.0,0 STARLINK-5433,1 54793U 22175AM  24092.33513565 -.00000369  00000-0 -50881-5 0  9990,2 54793  53.2177 314.5725 0001314  90.1962 269.9181 15.08826729 71325,6917.921,95.438,540.695,538.877,0.0
54793.0,STARLINK-5433,PAYLOAD,2024-04-01 20:45:40,15.08833879,0.0001301,53.2179,312.1925,90.5123,269.6018,9.076e-05,1.157e-05,0.0,0 STARLINK-5433,1 54793U 22175AM  24092.86505178  .00001157  00000-0  90760-4 0  9992,2 54793  53.2179 312.1925 0001301  90.5123 269.6018 15.08833879 71401,6917.899,95.438,540.664,538.864,0.0
54793.0,STARLINK-5433,PAYLOAD,2024-04-01 22:21:03,15.08840039,0.0001388,53.2174,311.8944,87.107,273.0081,4.202e-05,3.81e-06,0.0,0 STARLINK-5433,1 54793U 22175AM  24092.93128498  .00000381  00000-0  42020-4 0  9990,2 54793  53.2174 311.8944 0001388  87.1070 273.0081 15.08840039 71417,6917.88,95.438,540.705,538.785,0.0
54793.0,STARLINK-5433,PAYLOAD,2024-04-02 07:53:22,15.0883797,0.0001346,53.2169,310.1096,86.8318,273.2828,-9.5052e-06,-4.39e-06,0.0,0 STARLINK-5433,1 54793U 22175AM  24093.32872705 -.00000439  00000-0 -95052-5 0  9991,2 54793  53.2169 310.1096 0001346  86.8318 273.2828 15.08837970 73633,6917.887,95.438,540.683,538.82,0.0
54793.0,STARLINK-5433,PAYLOAD,2024-04-02 20:36:26,15.08842393,0.0001277,53.217,307.73,87.4373,272.6765,-1.9944e-05,-6.05e-06,0.0,0 STARLINK-5433,1 54793U 22175AM  24093.85864537 -.00000605  00000-0 -19944-4 0  9993,2 54793  53.2170 307.7300 0001277  87.4373 272.6765 15.08842393 73713,6917.873,95.437,540.621,538.855,0.0
54793.0,STARLINK-5433,PAYLOAD,2024-04-03 07:44:09,15.08837285,0.0001376,53.2168,305.649,87.4878,272.6271,0.0002853,4.255e-05,0.0,0 STARLINK-5433,1 54793U 22175AM  24094.32233180  .00004255  00000-0  28530-3 0  9993,2 54793  53.2168 305.6490 0001376  87.4878 272.6271 15.08837285 71621,6917.889,95.438,540.706,538.802,0.0
54793.0,STARLINK-5433,PAYLOAD,2024-04-03 14:05:42,15.08838136,0.0001434,53.217,304.4592,89.4903,270.6253,0.00024847,3.668e-05,0.0,0 STARLINK-5433,1 54793U 22175AM  24094.58729234  .00003668  00000-0  24847-3 0  9995,2 54793  53.2170 304.4592 0001434  89.4903 270.6253 15.08838136 73828,6917.886,95.438,540.743,538.759,0.0
54793.0,STARLINK-5433,PAYLOAD,2024-04-03 20:27:16,15.08794162,0.0001254,53.2165,303.2697,96.2376,263.8759,-0.00046157,-7.617e-05,0.0,0 STARLINK-5433,1 54793U 22175AM  24094.85227754 -.00007617  00000-0 -46157-3 0  9993,2 54793  53.2165 303.2697 0001254  96.2376 263.8759 15.08794162 71705,6918.021,95.44,540.753,539.018,0.0
54793.0,STARLINK-5433,PAYLOAD,2024-04-03 23:38:03,15.08793556,0.0001258,53.2166,302.6756,95.3031,264.8104,-0.00047687,-7.859e-05,0.0,0 STARLINK-5433,1 54793U 22175AM  24094.98476071 -.00007859  00000-0 -47687-3 0  9992,2 54793  53.2166 302.6756 0001258  95.3031 264.8104 15.08793556 73889,6918.022,95.44,540.758,539.017,0.0
54793.0,STARLINK-5433,PAYLOAD,2024-04-04 20:18:02,15.0884457,0.0001367,53.2168,298.8094,89.0002,271.1147,0.00027482,4.089e-05,0.0,0 STARLINK-5433,1 54793U 22175AM  24095.84586037  .00004089  00000-0  27482-3 0  9993,2 54793  53.2168 298.8094 0001367  89.0002 271.1147 15.08844570 71857,6917.866,95.437,540.677,538.786,0.0
54793.0,STARLINK-5433,PAYLOAD,2024-04-05 13:47:16,15.08852601,0.0001129,53.217,295.5392,88.6987,271.4134,0.00046142,7.066e-05,0.0,0 STARLINK-5433,1 54793U 22175AM  24096.57449353  .00007066  00000-0  46142-3 0  9995,2 54793  53.2170 295.5392 0001129  88.6987 271.4134 15.08852601 74124,6917.842,95.437,540.488,538.926,0.0
54793.0,STARLINK-5433,PAYLOAD,2024-04-05 18:33:25,15.08860615,0.0001292,53.2169,294.6467,89.7648,270.3492,0.00045001,6.885e-05,0.0,0 STARLINK-5433,1 54793U 22175AM  24096.77320890  .00006885  00000-0  45001-3 0  9992,2 54793  53.2169 294.6467 0001292  89.7648 270.3492 15.08860615 71993,6917.817,95.436,540.576,538.789,0.0
54793.0,STARLINK-5433,PAYLOAD,2024-04-06 05:41:06,15.0886352,0.0001351,53.2154,292.5617,69.8643,290.2494,0.00040797,6.215e-05,0.0,0 STARLINK-5433,1 54793U 22175AM  24097.23688558  .00006215  00000-0  40797-3 0  9996,2 54793  53.2154 292.5617 0001351  69.8643 290.2494 15.08863520 74221,6917.808,95.436,540.608,538.739,0.0
54793.0,STARLINK-5433,PAYLOAD,2024-04-06 19:59:35,15.08849992,0.0002222,53.2177,289.8901,89.5193,270.6054,-8.8707e-05,-1.7e-05,0.0,0 STARLINK-5433,1 54793U 22175AM  24097.83304689 -.00001700  00000-0 -88707-4 0  9992,2 54793  53.2177 289.8901 0002222  89.5193 270.6054 15.08849992 72159,6917.85,95.437,541.252,538.178,0.0
54793.0,STARLINK-5433,PAYLOAD,2024-04-06 21:34:58,15.08841062,0.0001552,53.2185,289.5942,89.3117,270.8053,-0.00024723,-4.221e-05,0.0,0 STARLINK-5433,1 54793U 22175AM  24097.89928889 -.00004221  00000-0 -24723-3 0  9990,2 54793  53.2185 289.5942 0001552  89.3117 270.8053 15.08841062 74321,6917.877,95.437,540.816,538.668,0.0
54793.0,STARLINK-5433,PAYLOAD,2024-04-07 05:31:54,15.08838769,0.0001551,53.2176,288.1066,88.6366,271.4804,-0.00019084,-3.324e-05,0.0,0 STARLINK-5433,1 54793U 22175AM  24098.23049212 -.00003324  00000-0 -19084-3 0  9990,2 54793  53.2176 288.1066 0001551  88.6366 271.4804 15.08838769 74376,6917.884,95.438,540.822,538.676,0.0
54793.0,STARLINK-5433,PAYLOAD,2024-04-07 21:25:45,15.08843493,0.0001513,53.2191,285.1323,92.7882,267.3283,-7.7814e-05,-1.526e-05,0.0,0 STARLINK-5433,1 54793U 22175AM  24098.89288924 -.00001526  00000-0 -77814-4 0  9995,2 54793  53.2191 285.1323 0001513  92.7882 267.3283 15.08843493 74479,6917.87,95.437,540.781,538.688,0.0
54793.0,STARLINK-5433,PAYLOAD,2024-04-08 21:16:32,15.08841639,0.0001381,53.2146,280.6693,75.43,284.6846,0.00020856,3.033e-05,0.0,0 STARLINK-5433,1 54793U 22175AM  24099.88649233  .00003033  00000-0  20856-3 0  9995,2 54793  53.2146 280.6693 0001381  75.4300 284.6846 15.08841639 74629,6917.875,95.437,540.696,538.785,0.0
54793.0,STARLINK-5433,PAYLOAD,2024-04-09 05:13:28,15.08839264,0.0001461,53.2152,279.1838,84.3303,275.7856,0.00015446,2.171e-05,0.0,0 STARLINK-5433,1 54793U 22175AM  24100.21769431  .00002171  00000-0  15446-3 0  9999,2 54793  53.2152 279.1838 0001461  84.3303 275.7856 15.08839264 72510,6917.883,95.438,540.758,538.737,0.0
54793.0,STARLINK-5433,PAYLOAD,2024-04-09 11:35:01,15.08840502,0.0001353,53.2141,277.9943,84.7545,275.3602,0.00015835,2.233e-05,0.0,0 STARLINK-5433,1 54793U 22175AM  24100.48265378  .00002233  00000-0  15835-3 0  9990,2 54793  53.2141 277.9943 0001353  84.7545 275.3602 15.08840502 74719,6917.879,95.438,540.68,538.808,0.0
54793.0,STARLINK-5433,PAYLOAD,2024-04-09 21:07:19,15.08843651,0.0001411,53.2145,276.2092,86.9616,273.1538,0.00011747,1.582e-05,0.0,0 STARLINK-5433,1 54793U 22175AM  24100.88009251  .00001582  00000-0  11747-3 0  9994,2 54793  53.2145 276.2092 0001411  86.9616 273.1538 15.08843651 74776,6917.869,95.437,540.71,538.758,0.0
